TEVEL2-3                
1 63218U 25052J   26068.64540225  .00020365  00000+0  69446-3 0  9991
2 63218  97.3994 324.7775 0004761 105.7353 254.4413 15.30377031 54855
STARLINK-33701          
1 63464U 25070E   26068.56958570  .00034061  00000+0  12408-2 0  9994
2 63464  43.0001 260.8607 0001173 224.1613 135.9145 15.27601059 52958
